start=new Date('2022-10-26T00:00:00.000Z').valueOf();
sats=[{"MEAN_MOTION_DOT":"-0.00025113","ELEMENT_SET_NO":"999","TIME_SYSTEM":"UTC","ARG_OF_PERICENTER":"14.7582","TLE_LINE2":"2 53997  53.2184 352.8434 0002604  14.7582  86.5862 15.73223986  1301","PERIOD":"91.532","MEAN_ANOMALY":"86.5862","INCLINATION":"53.2184","DECAY_DATE":null,"OBJECT_NAME":"STARLINK-5130","CLASSIFICATION_TYPE":"U","REV_AT_EPOCH":"130","EPOCH":"2022-10-25T22:00:01.999584","FILE":"3633327","MEAN_ELEMENT_THEORY":"SGP4","OBJECT_ID":"2022-125AK","SITE":"AFWTR","TLE_LINE1":"1 53997U 22125AK  22298.91668981 -.00025113  00000-0 -17482-3 0  9995","CENTER_NAME":"EARTH","MEAN_MOTION":"15.73223986","NORAD_CAT_ID":"53997","LAUNCH_DATE":"2022-10-05","SEMIMAJOR_AXIS":"6727.827","RA_OF_ASC_NODE":"352.8434","COUNTRY_CODE":"US","BSTAR":"-0.00017482000000","RCS_SIZE":"LARGE","APOAPSIS":"351.444","REF_FRAME":"TEME","GP_ID":"216156996","PERIAPSIS":"347.940","MEAN_MOTION_DDOT":"0.0000000000000","OBJECT_TYPE":"PAYLOAD","EPHEMERIS_TYPE":"0","ECCENTRICITY":"0.00026040"},{"OBJECT_NAME":"STARLINK-5128","DECAY_DATE":null,"CLASSIFICATION_TYPE":"U","REV_AT_EPOCH":"130","EPOCH":"2022-10-25T22:00:01.999584","FILE":"3633327","MEAN_ELEMENT_THEORY":"SGP4","OBJECT_ID":"2022-125AL","MEAN_MOTION_DOT":"-0.00050064","TIME_SYSTEM":"UTC","ELEMENT_SET_NO":"999","ARG_OF_PERICENTER":"23.6237","PERIOD":"91.531","TLE_LINE2":"2 53998  53.2183 352.8377 0003034  23.6237  80.6770 15.73236401  1300","MEAN_ANOMALY":"80.6770","INCLINATION":"53.2183","BSTAR":"-0.00035374000000","RCS_SIZE":"LARGE","REF_FRAME":"TEME","GP_ID":"216158028","APOAPSIS":"351.698","PERIAPSIS":"347.615","MEAN_MOTION_DDOT":"0.0000000000000","ECCENTRICITY":"0.00030340","OBJECT_TYPE":"PAYLOAD","EPHEMERIS_TYPE":"0","MEAN_MOTION":"15.73236401","CENTER_NAME":"EARTH","SITE":"AFWTR","TLE_LINE1":"1 53998U 22125AL  22298.91668981 -.00050064  00000-0 -35374-3 0  9999","LAUNCH_DATE":"2022-10-05","NORAD_CAT_ID":"53998","SEMIMAJOR_AXIS":"6727.791","COUNTRY_CODE":"US","RA_OF_ASC_NODE":"352.8377"},{"BSTAR":"0.00013611000000","RCS_SIZE":"LARGE","APOAPSIS":"351.613","GP_ID":"216157571","REF_FRAME":"TEME","PERIAPSIS":"347.882","MEAN_MOTION_DDOT":"0.0000000000000","OBJECT_TYPE":"PAYLOAD","EPHEMERIS_TYPE":"0","ECCENTRICITY":"0.00027730","SITE":"AFWTR","TLE_LINE1":"1 53999U 22125AM  22298.91668981  .00018528  00000-0  13611-3 0  9997","MEAN_MOTION":"15.73204391","CENTER_NAME":"EARTH","NORAD_CAT_ID":"53999","LAUNCH_DATE":"2022-10-05","SEMIMAJOR_AXIS":"6727.883","RA_OF_ASC_NODE":"352.8422","COUNTRY_CODE":"US","OBJECT_NAME":"STARLINK-5079","DECAY_DATE":null,"CLASSIFICATION_TYPE":"U","REV_AT_EPOCH":"130","EPOCH":"2022-10-25T22:00:01.999584","FILE":"3633327","MEAN_ELEMENT_THEORY":"SGP4","OBJECT_ID":"2022-125AM","MEAN_MOTION_DOT":"0.00018528","ELEMENT_SET_NO":"999","TIME_SYSTEM":"UTC","ARG_OF_PERICENTER":"19.3392","TLE_LINE2":"2 53999  53.2190 352.8422 0002773  19.3392  82.6611 15.73204391  1302","PERIOD":"91.533","MEAN_ANOMALY":"82.6611","INCLINATION":"53.2190"},{"MEAN_MOTION_DOT":"0.00040969","ELEMENT_SET_NO":"999","TIME_SYSTEM":"UTC","ARG_OF_PERICENTER":"21.0021","INCLINATION":"53.2192","MEAN_ANOMALY":"83.9373","TLE_LINE2":"2 54000  53.2192 352.8368 0002539  21.0021  83.9373 15.73201188  1306","PERIOD":"91.533","CLASSIFICATION_TYPE":"U","OBJECT_NAME":"STARLINK-5088","DECAY_DATE":null,"EPOCH":"2022-10-25T22:00:01.999584","REV_AT_EPOCH":"130","MEAN_ELEMENT_THEORY":"SGP4","FILE":"3633327","OBJECT_ID":"2022-125AN","SITE":"AFWTR","TLE_LINE1":"1 54000U 22125AN  22298.91668981  .00040969  00000-0  29486-3 0  9992","MEAN_MOTION":"15.73201188","CENTER_NAME":"EARTH","NORAD_CAT_ID":"54000","LAUNCH_DATE":"2022-10-05","RA_OF_ASC_NODE":"352.8368","COUNTRY_CODE":"US","SEMIMAJOR_AXIS":"6727.892","RCS_SIZE":"LARGE","BSTAR":"0.00029486000000","PERIAPSIS":"348.049","APOAPSIS":"351.465","REF_FRAME":"TEME","GP_ID":"216157239","OBJECT_TYPE":"PAYLOAD","EPHEMERIS_TYPE":"0","ECCENTRICITY":"0.00025390","MEAN_MOTION_DDOT":"0.0000000000000"},{"RA_OF_ASC_NODE":"352.8353","COUNTRY_CODE":"US","SEMIMAJOR_AXIS":"6727.770","TLE_LINE1":"1 54001U 22125AP  22298.91668981 -.00050370  00000-0 -35584-3 0  9998","SITE":"AFWTR","MEAN_MOTION":"15.73243745","CENTER_NAME":"EARTH","NORAD_CAT_ID":"54001","LAUNCH_DATE":"2022-10-05","OBJECT_TYPE":"PAYLOAD","EPHEMERIS_TYPE":"0","ECCENTRICITY":"0.00029200","MEAN_MOTION_DDOT":"0.0000000000000","RCS_SIZE":"LARGE","BSTAR":"-0.00035584000000","PERIAPSIS":"347.671","APOAPSIS":"351.600","GP_ID":"216157414","REF_FRAME":"TEME","ARG_OF_PERICENTER":"29.0636","INCLINATION":"53.2185","MEAN_ANOMALY":"76.4501","TLE_LINE2":"2 54001  53.2185 352.8353 0002920  29.0636  76.4501 15.73243745  1302","PERIOD":"91.531","MEAN_MOTION_DOT":"-0.00050370","ELEMENT_SET_NO":"999","TIME_SYSTEM":"UTC","MEAN_ELEMENT_THEORY":"SGP4","FILE":"3633327","OBJECT_ID":"2022-125AP","CLASSIFICATION_TYPE":"U","DECAY_DATE":null,"OBJECT_NAME":"STARLINK-5105","EPOCH":"2022-10-25T22:00:01.999584","REV_AT_EPOCH":"130"},{"SEMIMAJOR_AXIS":"6727.863","COUNTRY_CODE":"US","RA_OF_ASC_NODE":"352.7991","LAUNCH_DATE":"2022-10-05","NORAD_CAT_ID":"54002","MEAN_MOTION":"15.73211448","CENTER_NAME":"EARTH","SITE":"AFWTR","TLE_LINE1":"1 54002U 22125AQ  22298.91668981 -.00035319  00000-0 -24810-3 0  9995","MEAN_MOTION_DDOT":"0.0000000000000","ECCENTRICITY":"0.00026370","EPHEMERIS_TYPE":"0","OBJECT_TYPE":"PAYLOAD","GP_ID":"216157747","REF_FRAME":"TEME","APOAPSIS":"351.502","PERIAPSIS":"347.953","RCS_SIZE":"LARGE","BSTAR":"-0.00024810000000","PERIOD":"91.533","TLE_LINE2":"2 54002  53.2203 352.7991 0002637  18.1731 107.1193 15.73211448  1305","INCLINATION":"53.2203","MEAN_ANOMALY":"107.1193","ARG_OF_PERICENTER":"18.1731","TIME_SYSTEM":"UTC","ELEMENT_SET_NO":"999","MEAN_MOTION_DOT":"-0.00035319","OBJECT_ID":"2022-125AQ","FILE":"3633327","MEAN_ELEMENT_THEORY":"SGP4","REV_AT_EPOCH":"130","EPOCH":"2022-10-25T22:00:01.999584","DECAY_DATE":null,"OBJECT_NAME":"STARLINK-5109","CLASSIFICATION_TYPE":"U"},{"ELEMENT_SET_NO":"999","TIME_SYSTEM":"UTC","MEAN_MOTION_DOT":"0.00007917","TLE_LINE2":"2 54003  53.2190 352.8389 0002791  11.4731  92.2876 15.73202766  1305","PERIOD":"91.533","INCLINATION":"53.2190","MEAN_ANOMALY":"92.2876","ARG_OF_PERICENTER":"11.4731","REV_AT_EPOCH":"130","EPOCH":"2022-10-25T22:00:01.999584","DECAY_DATE":null,"OBJECT_NAME":"STARLINK-5114","CLASSIFICATION_TYPE":"U","OBJECT_ID":"2022-125AR","FILE":"3633327","MEAN_ELEMENT_THEORY":"SGP4","NORAD_CAT_ID":"54003","LAUNCH_DATE":"2022-10-05","SITE":"AFWTR","TLE_LINE1":"1 54003U 22125AR  22298.91668981  .00007917  00000-0  60775-4 0  9998","CENTER_NAME":"EARTH","MEAN_MOTION":"15.73202766","SEMIMAJOR_AXIS":"6727.887","RA_OF_ASC_NODE":"352.8389","COUNTRY_CODE":"US","APOAPSIS":"351.630","GP_ID":"216157853","REF_FRAME":"TEME","PERIAPSIS":"347.875","BSTAR":"0.00006077500000","RCS_SIZE":"LARGE","MEAN_MOTION_DDOT":"0.0000000000000","OBJECT_TYPE":"PAYLOAD","EPHEMERIS_TYPE":"0","ECCENTRICITY":"0.00027910"},{"SITE":"AFWTR","TLE_LINE1":"1 54004U 22125AS  22298.91668981  .00000512  00000-0  80872-5 0  9994","CENTER_NAME":"EARTH","MEAN_MOTION":"15.73196158","NORAD_CAT_ID":"54004","LAUNCH_DATE":"2022-10-05","RA_OF_ASC_NODE":"352.8319","COUNTRY_CODE":"US","SEMIMAJOR_AXIS":"6727.906","BSTAR":"0.00000808720000","RCS_SIZE":"LARGE","PERIAPSIS":"347.696","APOAPSIS":"351.846","REF_FRAME":"TEME","GP_ID":"216156822","EPHEMERIS_TYPE":"0","OBJECT_TYPE":"PAYLOAD","ECCENTRICITY":"0.00030840","MEAN_MOTION_DDOT":"0.0000000000000","MEAN_MOTION_DOT":"0.00000512","ELEMENT_SET_NO":"999","TIME_SYSTEM":"UTC","ARG_OF_PERICENTER":"8.1506","MEAN_ANOMALY":"99.1883","INCLINATION":"53.2190","TLE_LINE2":"2 54004  53.2190 352.8319 0003084   8.1506  99.1883 15.73196158  1309","PERIOD":"91.533","CLASSIFICATION_TYPE":"U","DECAY_DATE":null,"OBJECT_NAME":"STARLINK-5129","EPOCH":"2022-10-25T22:00:01.999584","REV_AT_EPOCH":"130","MEAN_ELEMENT_THEORY":"SGP4","FILE":"3633327","OBJECT_ID":"2022-125AS"},{"MEAN_ANOMALY":"90.6647","INCLINATION":"53.2183","PERIOD":"91.533","TLE_LINE2":"2 54005  53.2183 352.8334 0002808  15.4999  90.6647 15.73203041  1303","ARG_OF_PERICENTER":"15.4999","TIME_SYSTEM":"UTC","ELEMENT_SET_NO":"999","MEAN_MOTION_DOT":"0.00020952","OBJECT_ID":"2022-125AT","MEAN_ELEMENT_THEORY":"SGP4","FILE":"3633327","EPOCH":"2022-10-25T22:00:01.999584","REV_AT_EPOCH":"130","CLASSIFICATION_TYPE":"U","DECAY_DATE":null,"OBJECT_NAME":"STARLINK-5135","COUNTRY_CODE":"US","RA_OF_ASC_NODE":"352.8334","SEMIMAJOR_AXIS":"6727.887","LAUNCH_DATE":"2022-10-05","NORAD_CAT_ID":"54005","MEAN_MOTION":"15.73203041","CENTER_NAME":"EARTH","TLE_LINE1":"1 54005U 22125AT  22298.91668981  .00020952  00000-0  15330-3 0  9990","SITE":"AFWTR","ECCENTRICITY":"0.00028080","OBJECT_TYPE":"PAYLOAD","EPHEMERIS_TYPE":"0","MEAN_MOTION_DDOT":"0.0000000000000","PERIAPSIS":"347.862","GP_ID":"216156997","REF_FRAME":"TEME","APOAPSIS":"351.641","RCS_SIZE":"LARGE","BSTAR":"0.00015330000000"},{"RCS_SIZE":"LARGE","BSTAR":"0.00004521300000","APOAPSIS":"351.527","GP_ID":"216158029","REF_FRAME":"TEME","PERIAPSIS":"347.803","MEAN_MOTION_DDOT":"0.0000000000000","OBJECT_TYPE":"PAYLOAD","EPHEMERIS_TYPE":"0","ECCENTRICITY":"0.00027680","SITE":"AFWTR","TLE_LINE1":"1 54006U 22125AU  22298.91668981  .00005737  00000-0  45213-4 0  9999","MEAN_MOTION":"15.73233303","CENTER_NAME":"EARTH","NORAD_CAT_ID":"54006","LAUNCH_DATE":"2022-10-05","SEMIMAJOR_AXIS":"6727.800","RA_OF_ASC_NODE":"352.8271","COUNTRY_CODE":"US","DECAY_DATE":null,"OBJECT_NAME":"STARLINK-5096","CLASSIFICATION_TYPE":"U","REV_AT_EPOCH":"130","EPOCH":"2022-10-25T22:00:01.999584","FILE":"3633327","MEAN_ELEMENT_THEORY":"SGP4","OBJECT_ID":"2022-125AU","MEAN_MOTION_DOT":"0.00005737","ELEMENT_SET_NO":"999","TIME_SYSTEM":"UTC","ARG_OF_PERICENTER":"30.3939","TLE_LINE2":"2 54006  53.2190 352.8271 0002768  30.3939  79.8578 15.73233303  1303","PERIOD":"91.531","MEAN_ANOMALY":"79.8578","INCLINATION":"53.2190"}];
